H1 CPF  1  DLR 2021 07 09 10  6902 technosat            
H2  1704205 6203    42829 2021 07 09 00 00 00 2021 07 16 00 00 00    60 1 1  0 0 0
H9
10 0 59408  28800.000000  0      -2525868.197        375625.237      -6506845.313
10 0 59408  28860.000000  0      -2106009.514        485301.017      -6647439.600
10 0 59408  28920.000000  0      -1676452.925        589241.149      -6760171.487
10 0 59408  28980.000000  0      -1239039.211        686936.711      -6844572.962
10 0 59408  29040.000000  0       -795645.144        777920.967      -6900292.735
10 0 59408  29100.000000  0       -348175.712        861771.488      -6927097.497
10 0 59408  29160.000000  0        101443.705        938112.019      -6924872.808
10 0 59408  29220.000000  0        551275.267       1006614.075      -6893623.684
10 0 59408  29280.000000  0        999376.813       1066998.330      -6833474.792
10 0 59408  29340.000000  0       1443810.075       1119035.788      -6744670.029
10 0 59408  29400.000000  0       1882648.766       1162548.641      -6627571.663
10 0 59408  29460.000000  0       2313986.714       1197410.884      -6482659.163
10 0 59408  29520.000000  0       2735946.052       1223548.675      -6310527.494
10 0 59408  29580.000000  0       3146685.212       1240940.388      -6111884.902
10 0 59408  29640.000000  0       3544406.800       1249616.402      -5887550.427
10 0 59408  29700.000000  0       3927365.459       1249658.653      -5638450.971
10 0 59408  29760.000000  0       4293875.569       1241199.879      -5365617.912
10 0 59408  29820.000000  0       4642318.819       1224422.633      -5070183.298
10 0 59408  29880.000000  0       4971151.580       1199558.033      -4753375.518
10 0 59408  29940.000000  0       5278911.944       1166884.221      -4416514.552
10 0 59408  30000.000000  0       5564226.527       1126724.578      -4061006.846
10 0 59408  30060.000000  0       5825816.933       1079445.677      -3688339.747
10 0 59408  30120.000000  0       6062505.849       1025454.990      -3300075.568
10 0 59408  30180.000000  0       6273222.784        965198.368      -2897845.285
10 0 59408  30240.000000  0       6457009.397        899157.308      -2483341.831
10 0 59408  30300.000000  0       6613024.337        827846.016      -2058313.020
10 0 59408  30360.000000  0       6740547.550        751808.240      -1624554.151
10 0 59408  30420.000000  0       6838983.992        671613.920      -1183900.340
10 0 59408  30480.000000  0       6907866.788        587855.689       -738218.645
10 0 59408  30540.000000  0       6946859.765        501145.262       -289399.963
10 0 59408  30600.000000  0       6955759.363        412109.730        160649.156
10 0 59408  30660.000000  0       6934496.029        321387.729        610014.851
10 0 59408  30720.000000  0       6883134.839        229625.477       1056784.431
10 0 59408  30780.000000  0       6801875.492        137472.811       1499054.791
10 0 59408  30840.000000  0       6691051.651         45579.218       1934940.936
10 0 59408  30900.000000  0       6551129.482        -45410.133       2362584.368
10 0 59408  30960.000000  0       6382705.641       -134858.331       2780161.269
10 0 59408  31020.000000  0       6186504.626       -222140.680       3185890.627
10 0 59408  31080.000000  0       5963375.338       -306648.511       3578042.091
10 0 59408  31140.000000  0       5714287.197       -387792.786       3954943.443
10 0 59408  31200.000000  0       5440325.845       -465007.671       4314987.990
10 0 59408  31260.000000  0       5142688.012       -537754.047       4656641.648
10 0 59408  31320.000000  0       4822675.971       -605522.780       4978449.537
10 0 59408  31380.000000  0       4481691.417       -667837.774       5279042.283
10 0 59408  31440.000000  0       4121228.943       -724258.794       5557141.722
10 0 59408  31500.000000  0       3742869.268       -774384.098       5811566.313
10 0 59408  31560.000000  0       3348271.963       -817852.860       6041236.150
10 0 59408  31620.000000  0       2939167.848       -854347.327       6245177.397
10 0 59408  31680.000000  0       2517351.199       -883594.723       6422526.254
10 0 59408  31740.000000  0       2084671.697       -905368.900       6572532.573
10 0 59408  31800.000000  0       1643026.054       -919491.728       6694562.945
10 0 59408  31860.000000  0       1194349.460       -925834.205       6788103.203
10 0 59408  31920.000000  0        740606.930       -924317.244       6852760.398
10 0 59408  31980.000000  0        283784.615       -914912.209       6888264.308
10 0 59408  32040.000000  0       -174119.014       -897641.166       6894468.434
10 0 59408  32100.000000  0       -631101.931       -872576.858       6871350.486
10 0 59408  32160.000000  0      -1085167.381       -839842.386       6819012.438
10 0 59408  32220.000000  0      -1534332.658       -799610.576       6737680.008
10 0 59408  32280.000000  0      -1976637.772       -752103.075       6627701.663
10 0 59408  32340.000000  0      -2410154.030       -697589.197       6489547.175
10 0 59408  32400.000000  0      -2832992.503       -636384.458       6323805.715
10 0 59408  32460.000000  0      -3243312.393       -568848.848       6131183.436
10 0 59408  32520.000000  0      -3639329.175       -495384.876       5912500.555
10 0 59408  32580.000000  0      -4019322.538       -416435.363       5668687.958
10 0 59408  32640.000000  0      -4381644.062       -332480.960       5400783.318
10 0 59408  32700.000000  0      -4724724.575       -244037.465       5109926.697
10 0 59408  32760.000000  0      -5047081.117       -151652.940       4797355.729
10 0 59408  32820.000000  0      -5347323.614        -55904.599       4464400.404
10 0 59408  32880.000000  0      -5624161.083         42604.487       4112477.340
10 0 59408  32940.000000  0      -5876407.327        143248.846       3743083.752
10 0 59408  33000.000000  0      -6102986.250        245384.202       3357791.097
10 0 59408  33060.000000  0      -6302936.700        348351.229       2958238.321
10 0 59408  33120.000000  0      -6475416.749        451479.424       2546124.750
10 0 59408  33180.000000  0      -6619707.380        554091.036       2123202.710
10 0 59408  33240.000000  0      -6735215.638        655505.046       1691269.928
10 0 59408  33300.000000  0      -6821477.184        755041.191       1252161.667
10 0 59408  33360.000000  0      -6878158.190        852024.009        807742.692
10 0 59408  33420.000000  0      -6905056.621        945786.868        359899.111
10 0 59408  33480.000000  0      -6902102.849       1035675.971        -89469.892
10 0 59408  33540.000000  0      -6869359.600       1121054.284       -538460.345
10 0 59408  33600.000000  0      -6807021.261       1201305.358       -985171.750
10 0 59408  33660.000000  0      -6715412.577       1275837.038      -1427715.269
10 0 59408  33720.000000  0      -6594986.791       1344085.047      -1864221.785
10 0 59408  33780.000000  0      -6446323.261       1405516.497      -2292849.938
10 0 59408  33840.000000  0      -6270124.365       1459633.215      -2711794.063
10 0 59408  33900.000000  0      -6067211.766       1505974.796      -3119291.864
10 0 59408  33960.000000  0      -5838522.195       1544121.449      -3513631.769
10 0 59408  34020.000000  0      -5585102.741       1573696.645      -3893160.002
10 0 59408  34080.000000  0      -5308105.699       1594369.530      -4256287.337
10 0 59408  34140.000000  0      -5008783.009       1605857.094      -4601495.547
10 0 59408  34200.000000  0      -4688480.258       1607926.081      -4927343.483
10 0 59408  34260.000000  0      -4348630.355       1600394.626      -5232472.746
10 0 59408  34320.000000  0      -3990746.933       1583133.630      -5515612.977
10 0 59408  34380.000000  0      -3616417.468       1556067.882      -5775586.783
10 0 59408  34440.000000  0      -3227296.145       1519176.860      -6011314.273
10 0 59408  34500.000000  0      -2825096.513       1472495.256      -6221817.161
10 0 59408  34560.000000  0      -2411583.954       1416113.266      -6406222.486
10 0 59408  34620.000000  0      -1988567.911       1350176.611      -6563765.848
10 0 59408  34680.000000  0      -1557894.104       1274886.247      -6693794.157
10 0 59408  34740.000000  0      -1121436.702       1190497.784      -6795768.032
10 0 59408  34800.000000  0       -681090.382       1097320.655      -6869263.786
10 0 59408  34860.000000  0       -238762.393        995717.049      -6913974.931
10 0 59408  34920.000000  0        203635.320        886100.575      -6929713.375
10 0 59408  34980.000000  0        644194.084        768934.645      -6916410.300
10 0 59408  35040.000000  0       1081016.571        644730.581      -6874116.556
10 0 59408  35100.000000  0       1512224.768        514045.472      -6803002.463
10 0 59408  35160.000000  0       1935967.764        377479.774      -6703357.221
10 0 59408  35220.000000  0       2350429.449        235674.697      -6575587.973
10 0 59408  35280.000000  0       2753836.184         89309.381      -6420218.458
10 0 59408  35340.000000  0       3144464.321        -60902.204      -6237887.105
10 0 59408  35400.000000  0       3520647.430       -214214.590      -6029344.718
10 0 59408  35460.000000  0       3880783.348       -369854.305      -5795451.782
10 0 59408  35520.000000  0       4223341.023       -527023.545      -5537175.382
10 0 59408  35580.000000  0       4546867.214       -684904.079      -5255585.714
10 0 59408  35640.000000  0       4849992.892       -842661.340      -4951852.042
10 0 59408  35700.000000  0       5131439.286       -999448.621      -4627238.221
10 0 59408  35760.000000  0       5390023.569      -1154411.414      -4283097.815
10 0 59408  35820.000000  0       5624664.186      -1306691.863      -3920868.801
10 0 59408  35880.000000  0       5834385.782      -1455433.309      -3542067.851
10 0 59408  35940.000000  0       6018323.661      -1599784.906      -3148284.216
99
